<?xml version="1.0" encoding="UTF-8"?><gpx creator="Wikiloc - http://www.wikiloc.com" version="1.1" xmlns="http://www.topografix.com/GPX/1/1" xmlns:xsi="http://www.w3.org/2001/XMLSchema-instance" xsi:schemaLocation="http://www.topografix.com/GPX/1/1 http://www.topografix.com/GPX/1/1/gpx.xsd"><metadata><name><![CDATA[Pian Falzarego - Forcella Lagazuoi - Baracca ufficiali austriaci - Rifugio Lagazuoi]]></name><author><name><![CDATA[Marco Arrigoni 63060]]></name><link href="https://www.wikiloc.com/wikiloc/user.do?id=22411370"><text><![CDATA[Marco Arrigoni 63060 on Wikiloc]]></text></link></author><link href="https://www.wikiloc.com/wikiloc/view.do?id=289045061"><text><![CDATA[Pian Falzarego - Forcella Lagazuoi - Baracca ufficiali austriaci - Rifugio Lagazuoi on Wikiloc]]></text></link><time>2026-10-02T12:04:29Z</time></metadata><trk><name><![CDATA[Pian Falzarego - Forcella Lagazuoi - Baracca ufficiali austriaci - Rifugio Lagazuoi]]></name><cmt><![CDATA[Percorso da Pian Falzarego a Rifugio Lagazuoi passando per:
- Forcella Lagazuoi (1.9 km)
- Baracca ufficiali austriaci (2.0 km)]]></cmt><desc><![CDATA[Percorso da Pian Falzarego a Rifugio Lagazuoi passando per:
- Forcella Lagazuoi (1.9 km)
- Baracca ufficiali austriaci (2.0 km)]]></desc><trkseg><trkpt lat="46.519943999999995" lon="12.008816999999999"><ele>2161.883</ele><time>2026-10-02T12:04:29Z</time></trkpt><trkpt lat="46.519988999999995" lon="12.008802"><ele>2161.825</ele><time>2026-10-02T12:04:46Z</time></trkpt><trkpt lat="46.520036" lon="12.008830999999999"><ele>2150.917</ele><time>2026-10-02T12:05:19Z</time></trkpt><trkpt lat="46.52007" lon="12.00889"><ele>2150.909</ele><time>2026-10-02T12:05:23Z</time></trkpt><trkpt lat="46.520118" lon="12.008911999999999"><ele>2150.940</ele><time>2026-10-02T12:05:27Z</time></trkpt><trkpt lat="46.520163999999994" lon="12.008957999999998"><ele>2150.936</ele><time>2026-10-02T12:05:36Z</time></trkpt><trkpt lat="46.52016999999999" lon="12.009029999999997"><ele>2150.987</ele><time>2026-10-02T12:05:40Z</time></trkpt><trkpt lat="46.52017299999999" lon="12.009099999999997"><ele>2151.098</ele><time>2026-10-02T12:05:44Z</time></trkpt><trkpt lat="46.520188999999995" lon="12.009164999999996"><ele>2151.132</ele><time>2026-10-02T12:05:51Z</time></trkpt><trkpt lat="46.52023499999999" lon="12.009181999999996"><ele>2151.173</ele><time>2026-10-02T12:05:55Z</time></trkpt><trkpt lat="46.520278999999995" lon="12.009214999999996"><ele>2151.388</ele><time>2026-10-02T12:06:00Z</time></trkpt><trkpt lat="46.520323999999995" lon="12.009200999999996"><ele>2151.364</ele><time>2026-10-02T12:06:04Z</time></trkpt><trkpt lat="46.520329999999994" lon="12.009265999999995"><ele>2151.699</ele><time>2026-10-02T12:06:11Z</time></trkpt><trkpt lat="46.520376999999996" lon="12.009306999999994"><ele>2152.193</ele><time>2026-10-02T12:06:23Z</time></trkpt><trkpt lat="46.520421999999996" lon="12.009329999999995"><ele>2152.565</ele><time>2026-10-02T12:06:26Z</time></trkpt><trkpt lat="46.520399" lon="12.009406999999994"><ele>2152.621</ele><time>2026-10-02T12:06:36Z</time></trkpt><trkpt lat="46.520444" lon="12.009399999999994"><ele>2153.009</ele><time>2026-10-02T12:06:47Z</time></trkpt><trkpt lat="46.52048" lon="12.009441999999995"><ele>2153.951</ele><time>2026-10-02T12:06:53Z</time></trkpt><trkpt lat="46.520528" lon="12.009428999999995"><ele>2154.787</ele><time>2026-10-02T12:07:06Z</time></trkpt><trkpt lat="46.520566" lon="12.009471999999995"><ele>2155.188</ele><time>2026-10-02T12:07:13Z</time></trkpt><trkpt lat="46.520604000000006" lon="12.009513999999996"><ele>2155.599</ele><time>2026-10-02T12:07:21Z</time></trkpt><trkpt lat="46.52062900000001" lon="12.009568999999995"><ele>2156.463</ele><time>2026-10-02T12:07:28Z</time></trkpt><trkpt lat="46.52066800000001" lon="12.009603999999996"><ele>2157.714</ele><time>2026-10-02T12:07:34Z</time></trkpt><trkpt lat="46.52070200000001" lon="12.009657999999996"><ele>2159.179</ele><time>2026-10-02T12:07:40Z</time></trkpt><trkpt lat="46.520734000000004" lon="12.009714999999996"><ele>2160.255</ele><time>2026-10-02T12:07:46Z</time></trkpt><trkpt lat="46.52077800000001" lon="12.009746999999996"><ele>2161.390</ele><time>2026-10-02T12:07:52Z</time></trkpt><trkpt lat="46.520830000000004" lon="12.009770999999995"><ele>2162.654</ele><time>2026-10-02T12:07:59Z</time></trkpt><trkpt lat="46.520877000000006" lon="12.009767999999996"><ele>2164.156</ele><time>2026-10-02T12:08:07Z</time></trkpt><trkpt lat="46.52092400000001" lon="12.009763999999995"><ele>2165.611</ele><time>2026-10-02T12:08:14Z</time></trkpt><trkpt lat="46.52098200000001" lon="12.009773999999995"><ele>2167.209</ele><time>2026-10-02T12:08:20Z</time></trkpt><trkpt lat="46.52103100000001" lon="12.009771999999995"><ele>2168.817</ele><time>2026-10-02T12:08:26Z</time></trkpt><trkpt lat="46.52108200000001" lon="12.009792999999995"><ele>2170.113</ele><time>2026-10-02T12:08:33Z</time></trkpt><trkpt lat="46.521116000000006" lon="12.009842999999995"><ele>2171.394</ele><time>2026-10-02T12:08:39Z</time></trkpt><trkpt lat="46.52116000000001" lon="12.009862999999994"><ele>2172.415</ele><time>2026-10-02T12:08:48Z</time></trkpt><trkpt lat="46.521195000000006" lon="12.009907999999994"><ele>2173.559</ele><time>2026-10-02T12:08:58Z</time></trkpt><trkpt lat="46.521232000000005" lon="12.009946999999993"><ele>2175.120</ele><time>2026-10-02T12:09:05Z</time></trkpt><trkpt lat="46.521271000000006" lon="12.009988999999994"><ele>2176.485</ele><time>2026-10-02T12:09:12Z</time></trkpt><trkpt lat="46.52130700000001" lon="12.010028999999994"><ele>2177.211</ele><time>2026-10-02T12:09:22Z</time></trkpt><trkpt lat="46.52134100000001" lon="12.010075999999994"><ele>2178.496</ele><time>2026-10-02T12:09:29Z</time></trkpt><trkpt lat="46.52139400000001" lon="12.010084999999995"><ele>2179.946</ele><time>2026-10-02T12:09:55Z</time></trkpt><trkpt lat="46.521440000000005" lon="12.010087999999994"><ele>2181.488</ele><time>2026-10-02T12:10:09Z</time></trkpt><trkpt lat="46.521482000000006" lon="12.010063999999995"><ele>2183.516</ele><time>2026-10-02T12:10:16Z</time></trkpt><trkpt lat="46.521511000000004" lon="12.010010999999995"><ele>2185.009</ele><time>2026-10-02T12:10:21Z</time></trkpt><trkpt lat="46.52150400000001" lon="12.010081999999995"><ele>2185.176</ele><time>2026-10-02T12:10:41Z</time></trkpt><trkpt lat="46.52148400000001" lon="12.010141999999995"><ele>2185.372</ele><time>2026-10-02T12:10:49Z</time></trkpt><trkpt lat="46.521502000000005" lon="12.010201999999994"><ele>2185.723</ele><time>2026-10-02T12:10:56Z</time></trkpt><trkpt lat="46.52153200000001" lon="12.010255999999995"><ele>2186.234</ele><time>2026-10-02T12:11:01Z</time></trkpt><trkpt lat="46.52155700000001" lon="12.010332999999994"><ele>2186.588</ele><time>2026-10-02T12:11:09Z</time></trkpt><trkpt lat="46.52159300000001" lon="12.010384999999994"><ele>2186.819</ele><time>2026-10-02T12:11:16Z</time></trkpt><trkpt lat="46.52160900000001" lon="12.010446999999994"><ele>2187.524</ele><time>2026-10-02T12:11:21Z</time></trkpt><trkpt lat="46.52162600000001" lon="12.010512999999994"><ele>2188.540</ele><time>2026-10-02T12:11:27Z</time></trkpt><trkpt lat="46.52165700000001" lon="12.010561999999995"><ele>2189.435</ele><time>2026-10-02T12:11:35Z</time></trkpt><trkpt lat="46.521667000000015" lon="12.010633999999994"><ele>2190.236</ele><time>2026-10-02T12:11:41Z</time></trkpt><trkpt lat="46.52165400000001" lon="12.010702999999994"><ele>2191.217</ele><time>2026-10-02T12:12:30Z</time></trkpt><trkpt lat="46.521647000000016" lon="12.010767999999993"><ele>2192.318</ele><time>2026-10-02T12:12:35Z</time></trkpt><trkpt lat="46.52164600000002" lon="12.010832999999993"><ele>2193.609</ele><time>2026-10-02T12:12:50Z</time></trkpt><trkpt lat="46.52168700000002" lon="12.010863999999993"><ele>2194.515</ele><time>2026-10-02T12:12:56Z</time></trkpt><trkpt lat="46.52172200000002" lon="12.010811999999992"><ele>2194.931</ele><time>2026-10-02T12:13:07Z</time></trkpt><trkpt lat="46.521768000000016" lon="12.010833999999992"><ele>2195.352</ele><time>2026-10-02T12:13:17Z</time></trkpt><trkpt lat="46.521811000000014" lon="12.010868999999992"><ele>2195.613</ele><time>2026-10-02T12:13:23Z</time></trkpt><trkpt lat="46.52184000000001" lon="12.010919999999992"><ele>2196.567</ele><time>2026-10-02T12:13:37Z</time></trkpt><trkpt lat="46.52184800000001" lon="12.010995999999992"><ele>2197.748</ele><time>2026-10-02T12:13:46Z</time></trkpt><trkpt lat="46.52186200000001" lon="12.011058999999992"><ele>2198.553</ele><time>2026-10-02T12:13:53Z</time></trkpt><trkpt lat="46.52189300000001" lon="12.011108999999992"><ele>2199.429</ele><time>2026-10-02T12:13:59Z</time></trkpt><trkpt lat="46.521926000000015" lon="12.011169999999993"><ele>2200.384</ele><time>2026-10-02T12:14:12Z</time></trkpt><trkpt lat="46.52195800000001" lon="12.011238999999993"><ele>2201.129</ele><time>2026-10-02T12:14:19Z</time></trkpt><trkpt lat="46.52197300000001" lon="12.011308999999992"><ele>2202.200</ele><time>2026-10-02T12:14:24Z</time></trkpt><trkpt lat="46.52199400000001" lon="12.011373999999991"><ele>2203.220</ele><time>2026-10-02T12:14:30Z</time></trkpt><trkpt lat="46.522009000000004" lon="12.011436999999992"><ele>2204.009</ele><time>2026-10-02T12:14:38Z</time></trkpt><trkpt lat="46.52201" lon="12.011506999999991"><ele>2204.824</ele><time>2026-10-02T12:14:45Z</time></trkpt><trkpt lat="46.522034000000005" lon="12.01156499999999"><ele>2205.620</ele><time>2026-10-02T12:14:50Z</time></trkpt><trkpt lat="46.522059000000006" lon="12.01162899999999"><ele>2206.621</ele><time>2026-10-02T12:14:55Z</time></trkpt><trkpt lat="46.522087000000006" lon="12.01169099999999"><ele>2207.542</ele><time>2026-10-02T12:15:00Z</time></trkpt><trkpt lat="46.52211100000001" lon="12.01174699999999"><ele>2207.966</ele><time>2026-10-02T12:15:04Z</time></trkpt><trkpt lat="46.52213000000001" lon="12.01181399999999"><ele>2208.017</ele><time>2026-10-02T12:15:10Z</time></trkpt><trkpt lat="46.52215900000001" lon="12.01186799999999"><ele>2208.132</ele><time>2026-10-02T12:15:14Z</time></trkpt><trkpt lat="46.52218800000001" lon="12.011919999999991"><ele>2208.628</ele><time>2026-10-02T12:15:24Z</time></trkpt><trkpt lat="46.522211000000006" lon="12.01197999999999"><ele>2209.073</ele><time>2026-10-02T12:15:29Z</time></trkpt><trkpt lat="46.52224400000001" lon="12.01202799999999"><ele>2209.532</ele><time>2026-10-02T12:15:34Z</time></trkpt><trkpt lat="46.52226900000001" lon="12.01208299999999"><ele>2210.292</ele><time>2026-10-02T12:16:05Z</time></trkpt><trkpt lat="46.522298000000006" lon="12.01213299999999"><ele>2210.411</ele><time>2026-10-02T12:16:11Z</time></trkpt><trkpt lat="46.522355000000005" lon="12.01215499999999"><ele>2210.909</ele><time>2026-10-02T12:16:25Z</time></trkpt><trkpt lat="46.522380000000005" lon="12.01221199999999"><ele>2211.585</ele><time>2026-10-02T12:16:47Z</time></trkpt><trkpt lat="46.52242100000001" lon="12.01226399999999"><ele>2212.131</ele><time>2026-10-02T12:16:55Z</time></trkpt><trkpt lat="46.52247400000001" lon="12.01228799999999"><ele>2212.542</ele><time>2026-10-02T12:17:07Z</time></trkpt><trkpt lat="46.52250300000001" lon="12.012340999999989"><ele>2212.613</ele><time>2026-10-02T12:17:13Z</time></trkpt><trkpt lat="46.522546000000006" lon="12.012362999999988"><ele>2212.997</ele><time>2026-10-02T12:17:18Z</time></trkpt><trkpt lat="46.522586000000004" lon="12.012393999999988"><ele>2213.438</ele><time>2026-10-02T12:17:22Z</time></trkpt><trkpt lat="46.522631000000004" lon="12.012417999999988"><ele>2213.923</ele><time>2026-10-02T12:17:27Z</time></trkpt><trkpt lat="46.522673000000005" lon="12.012453999999988"><ele>2214.429</ele><time>2026-10-02T12:17:32Z</time></trkpt><trkpt lat="46.522719" lon="12.012482999999987"><ele>2215.084</ele><time>2026-10-02T12:17:42Z</time></trkpt><trkpt lat="46.522755000000004" lon="12.012534999999987"><ele>2215.617</ele><time>2026-10-02T12:17:50Z</time></trkpt><trkpt lat="46.52277" lon="12.012605999999987"><ele>2216.787</ele><time>2026-10-02T12:17:56Z</time></trkpt><trkpt lat="46.522793" lon="12.012662999999987"><ele>2217.615</ele><time>2026-10-02T12:18:01Z</time></trkpt><trkpt lat="46.522842" lon="12.012668999999988"><ele>2218.209</ele><time>2026-10-02T12:18:06Z</time></trkpt><trkpt lat="46.522884999999995" lon="12.012702999999988"><ele>2218.963</ele><time>2026-10-02T12:18:22Z</time></trkpt><trkpt lat="46.522935999999994" lon="12.012731999999987"><ele>2219.369</ele><time>2026-10-02T12:18:27Z</time></trkpt><trkpt lat="46.52298999999999" lon="12.012764999999987"><ele>2219.880</ele><time>2026-10-02T12:18:32Z</time></trkpt><trkpt lat="46.523044999999996" lon="12.012723999999988"><ele>2220.341</ele><time>2026-10-02T12:18:36Z</time></trkpt><trkpt lat="46.523081999999995" lon="12.012677999999989"><ele>2221.015</ele><time>2026-10-02T12:18:41Z</time></trkpt><trkpt lat="46.523053" lon="12.012735999999988"><ele>2222.046</ele><time>2026-10-02T12:19:03Z</time></trkpt><trkpt lat="46.523033" lon="12.012808999999988"><ele>2223.591</ele><time>2026-10-02T12:19:08Z</time></trkpt><trkpt lat="46.523022999999995" lon="12.012887999999988"><ele>2223.597</ele><time>2026-10-02T12:19:14Z</time></trkpt><trkpt lat="46.523045999999994" lon="12.012948999999988"><ele>2223.432</ele><time>2026-10-02T12:19:20Z</time></trkpt><trkpt lat="46.523081999999995" lon="12.013001999999988"><ele>2223.471</ele><time>2026-10-02T12:19:25Z</time></trkpt><trkpt lat="46.523106999999996" lon="12.013057999999988"><ele>2223.341</ele><time>2026-10-02T12:19:30Z</time></trkpt><trkpt lat="46.523126" lon="12.013121999999989"><ele>2223.115</ele><time>2026-10-02T12:19:34Z</time></trkpt><trkpt lat="46.523171" lon="12.013147999999989"><ele>2223.109</ele><time>2026-10-02T12:19:46Z</time></trkpt><trkpt lat="46.523205999999995" lon="12.01319199999999"><ele>2223.349</ele><time>2026-10-02T12:19:56Z</time></trkpt><trkpt lat="46.523244" lon="12.013237999999989"><ele>2224.055</ele><time>2026-10-02T12:20:03Z</time></trkpt><trkpt lat="46.523255999999996" lon="12.013303999999989"><ele>2224.996</ele><time>2026-10-02T12:20:07Z</time></trkpt><trkpt lat="46.523256999999994" lon="12.01336999999999"><ele>2225.017</ele><time>2026-10-02T12:20:12Z</time></trkpt><trkpt lat="46.52327699999999" lon="12.013429999999989"><ele>2225.271</ele><time>2026-10-02T12:20:16Z</time></trkpt><trkpt lat="46.523295999999995" lon="12.013501999999988"><ele>2225.752</ele><time>2026-10-02T12:20:21Z</time></trkpt><trkpt lat="46.523306999999996" lon="12.013565999999988"><ele>2226.237</ele><time>2026-10-02T12:20:25Z</time></trkpt><trkpt lat="46.523323999999995" lon="12.01362899999999"><ele>2227.043</ele><time>2026-10-02T12:20:29Z</time></trkpt><trkpt lat="46.52334199999999" lon="12.013698999999988"><ele>2227.888</ele><time>2026-10-02T12:20:34Z</time></trkpt><trkpt lat="46.52334299999999" lon="12.013779999999988"><ele>2228.647</ele><time>2026-10-02T12:20:39Z</time></trkpt><trkpt lat="46.52335899999999" lon="12.013844999999987"><ele>2229.529</ele><time>2026-10-02T12:20:44Z</time></trkpt><trkpt lat="46.52337999999999" lon="12.013903999999988"><ele>2230.221</ele><time>2026-10-02T12:20:49Z</time></trkpt><trkpt lat="46.52338899999999" lon="12.013980999999987"><ele>2230.909</ele><time>2026-10-02T12:20:55Z</time></trkpt><trkpt lat="46.523395999999984" lon="12.014056999999987"><ele>2231.746</ele><time>2026-10-02T12:21:00Z</time></trkpt><trkpt lat="46.523406999999985" lon="12.014123999999986"><ele>2232.152</ele><time>2026-10-02T12:21:06Z</time></trkpt><trkpt lat="46.52341599999998" lon="12.014194999999987"><ele>2232.423</ele><time>2026-10-02T12:21:11Z</time></trkpt><trkpt lat="46.52341699999998" lon="12.014269999999987"><ele>2233.244</ele><time>2026-10-02T12:21:17Z</time></trkpt><trkpt lat="46.523426999999984" lon="12.014336999999987"><ele>2234.398</ele><time>2026-10-02T12:21:22Z</time></trkpt><trkpt lat="46.52342199999998" lon="12.014405999999987"><ele>2235.639</ele><time>2026-10-02T12:21:27Z</time></trkpt><trkpt lat="46.523392999999984" lon="12.014457999999987"><ele>2236.954</ele><time>2026-10-02T12:21:45Z</time></trkpt><trkpt lat="46.523437999999985" lon="12.014503999999986"><ele>2237.960</ele><time>2026-10-02T12:21:51Z</time></trkpt><trkpt lat="46.52348099999998" lon="12.014550999999987"><ele>2239.215</ele><time>2026-10-02T12:21:57Z</time></trkpt><trkpt lat="46.52350899999998" lon="12.014601999999986"><ele>2240.072</ele><time>2026-10-02T12:22:02Z</time></trkpt><trkpt lat="46.52354099999998" lon="12.014654999999985"><ele>2240.213</ele><time>2026-10-02T12:22:09Z</time></trkpt><trkpt lat="46.52356899999998" lon="12.014717999999986"><ele>2240.514</ele><time>2026-10-02T12:22:16Z</time></trkpt><trkpt lat="46.52361399999998" lon="12.014708999999986"><ele>2240.509</ele><time>2026-10-02T12:22:25Z</time></trkpt><trkpt lat="46.52359399999998" lon="12.014776999999986"><ele>2241.189</ele><time>2026-10-02T12:22:38Z</time></trkpt><trkpt lat="46.523617999999985" lon="12.014839999999987"><ele>2242.125</ele><time>2026-10-02T12:22:43Z</time></trkpt><trkpt lat="46.523653999999986" lon="12.014881999999988"><ele>2242.656</ele><time>2026-10-02T12:22:52Z</time></trkpt><trkpt lat="46.52365899999999" lon="12.014948999999987"><ele>2242.787</ele><time>2026-10-02T12:22:57Z</time></trkpt><trkpt lat="46.52368099999999" lon="12.015013999999987"><ele>2243.321</ele><time>2026-10-02T12:23:03Z</time></trkpt><trkpt lat="46.52370999999999" lon="12.015066999999986"><ele>2244.042</ele><time>2026-10-02T12:23:08Z</time></trkpt><trkpt lat="46.523735999999985" lon="12.015134999999987"><ele>2244.797</ele><time>2026-10-02T12:23:13Z</time></trkpt><trkpt lat="46.523760999999986" lon="12.015200999999987"><ele>2245.583</ele><time>2026-10-02T12:23:18Z</time></trkpt><trkpt lat="46.523783999999985" lon="12.015263999999988"><ele>2246.228</ele><time>2026-10-02T12:23:23Z</time></trkpt><trkpt lat="46.52380499999998" lon="12.015325999999988"><ele>2246.949</ele><time>2026-10-02T12:23:28Z</time></trkpt><trkpt lat="46.52382799999998" lon="12.015385999999987"><ele>2247.602</ele><time>2026-10-02T12:23:34Z</time></trkpt><trkpt lat="46.52384599999998" lon="12.015446999999988"><ele>2248.422</ele><time>2026-10-02T12:23:38Z</time></trkpt><trkpt lat="46.52386499999998" lon="12.015507999999988"><ele>2249.309</ele><time>2026-10-02T12:23:43Z</time></trkpt><trkpt lat="46.52389599999998" lon="12.015560999999988"><ele>2250.286</ele><time>2026-10-02T12:23:48Z</time></trkpt><trkpt lat="46.52393499999998" lon="12.015606999999987"><ele>2251.092</ele><time>2026-10-02T12:23:54Z</time></trkpt><trkpt lat="46.52394099999998" lon="12.015675999999987"><ele>2251.893</ele><time>2026-10-02T12:24:10Z</time></trkpt><trkpt lat="46.52397499999998" lon="12.015724999999987"><ele>2252.534</ele><time>2026-10-02T12:24:17Z</time></trkpt><trkpt lat="46.524006999999976" lon="12.015771999999988"><ele>2253.338</ele><time>2026-10-02T12:24:22Z</time></trkpt><trkpt lat="46.52404799999998" lon="12.015816999999988"><ele>2254.259</ele><time>2026-10-02T12:24:28Z</time></trkpt><trkpt lat="46.52409799999998" lon="12.015857999999987"><ele>2254.914</ele><time>2026-10-02T12:24:36Z</time></trkpt><trkpt lat="46.52414699999998" lon="12.015882999999988"><ele>2255.730</ele><time>2026-10-02T12:24:45Z</time></trkpt><trkpt lat="46.52419699999998" lon="12.015903999999988"><ele>2257.155</ele><time>2026-10-02T12:24:50Z</time></trkpt><trkpt lat="46.52423399999998" lon="12.015945999999989"><ele>2258.626</ele><time>2026-10-02T12:24:57Z</time></trkpt><trkpt lat="46.524265999999976" lon="12.01599299999999"><ele>2259.547</ele><time>2026-10-02T12:25:04Z</time></trkpt><trkpt lat="46.52430499999998" lon="12.016033999999989"><ele>2260.511</ele><time>2026-10-02T12:25:10Z</time></trkpt><trkpt lat="46.52434599999998" lon="12.01607599999999"><ele>2261.709</ele><time>2026-10-02T12:25:24Z</time></trkpt><trkpt lat="46.52438499999998" lon="12.01612299999999"><ele>2263.014</ele><time>2026-10-02T12:25:33Z</time></trkpt><trkpt lat="46.524428999999984" lon="12.01615999999999"><ele>2264.830</ele><time>2026-10-02T12:25:39Z</time></trkpt><trkpt lat="46.52447999999998" lon="12.01620099999999"><ele>2266.731</ele><time>2026-10-02T12:25:53Z</time></trkpt><trkpt lat="46.52452499999998" lon="12.01619699999999"><ele>2268.062</ele><time>2026-10-02T12:26:03Z</time></trkpt><trkpt lat="46.524571999999985" lon="12.01622199999999"><ele>2269.316</ele><time>2026-10-02T12:26:16Z</time></trkpt><trkpt lat="46.52461499999998" lon="12.01624999999999"><ele>2270.757</ele><time>2026-10-02T12:26:24Z</time></trkpt><trkpt lat="46.52465699999998" lon="12.016279999999991"><ele>2272.422</ele><time>2026-10-02T12:26:41Z</time></trkpt><trkpt lat="46.524703999999986" lon="12.016297999999992"><ele>2274.198</ele><time>2026-10-02T12:26:50Z</time></trkpt><trkpt lat="46.52474199999999" lon="12.016343999999991"><ele>2275.993</ele><time>2026-10-02T12:26:58Z</time></trkpt><trkpt lat="46.52478199999999" lon="12.01637799999999"><ele>2277.781</ele><time>2026-10-02T12:27:07Z</time></trkpt><trkpt lat="46.52482999999999" lon="12.01640999999999"><ele>2279.561</ele><time>2026-10-02T12:27:16Z</time></trkpt><trkpt lat="46.52486599999999" lon="12.01644999999999"><ele>2281.617</ele><time>2026-10-02T12:27:26Z</time></trkpt><trkpt lat="46.52490499999999" lon="12.01648599999999"><ele>2283.509</ele><time>2026-10-02T12:27:36Z</time></trkpt><trkpt lat="46.52493199999999" lon="12.016543999999989"><ele>2285.450</ele><time>2026-10-02T12:27:56Z</time></trkpt><trkpt lat="46.52496699999999" lon="12.01660299999999"><ele>2287.466</ele><time>2026-10-02T12:28:07Z</time></trkpt><trkpt lat="46.52498999999999" lon="12.016660999999988"><ele>2289.387</ele><time>2026-10-02T12:28:16Z</time></trkpt><trkpt lat="46.52501999999999" lon="12.016717999999988"><ele>2291.428</ele><time>2026-10-02T12:28:25Z</time></trkpt><trkpt lat="46.52501699999999" lon="12.016787999999988"><ele>2293.332</ele><time>2026-10-02T12:28:35Z</time></trkpt><trkpt lat="46.52502399999999" lon="12.016855999999988"><ele>2295.143</ele><time>2026-10-02T12:28:45Z</time></trkpt><trkpt lat="46.52501799999999" lon="12.016920999999988"><ele>2297.268</ele><time>2026-10-02T12:29:00Z</time></trkpt><trkpt lat="46.52501299999999" lon="12.016986999999988"><ele>2299.474</ele><time>2026-10-02T12:29:08Z</time></trkpt><trkpt lat="46.52500099999999" lon="12.017050999999988"><ele>2301.429</ele><time>2026-10-02T12:29:23Z</time></trkpt><trkpt lat="46.52498199999999" lon="12.017119999999988"><ele>2302.825</ele><time>2026-10-02T12:29:32Z</time></trkpt><trkpt lat="46.52497299999999" lon="12.017191999999987"><ele>2304.426</ele><time>2026-10-02T12:29:47Z</time></trkpt><trkpt lat="46.52496799999999" lon="12.017263999999987"><ele>2306.208</ele><time>2026-10-02T12:29:54Z</time></trkpt><trkpt lat="46.52496699999999" lon="12.017332999999986"><ele>2307.609</ele><time>2026-10-02T12:30:01Z</time></trkpt><trkpt lat="46.524973999999986" lon="12.017397999999986"><ele>2308.834</ele><time>2026-10-02T12:30:19Z</time></trkpt><trkpt lat="46.52498099999998" lon="12.017463999999986"><ele>2310.070</ele><time>2026-10-02T12:30:27Z</time></trkpt><trkpt lat="46.52502099999998" lon="12.017513999999986"><ele>2311.731</ele><time>2026-10-02T12:30:33Z</time></trkpt><trkpt lat="46.525058999999985" lon="12.017564999999985"><ele>2313.122</ele><time>2026-10-02T12:30:41Z</time></trkpt><trkpt lat="46.525103999999985" lon="12.017580999999986"><ele>2313.976</ele><time>2026-10-02T12:30:46Z</time></trkpt><trkpt lat="46.525156999999986" lon="12.017578999999985"><ele>2315.027</ele><time>2026-10-02T12:31:02Z</time></trkpt><trkpt lat="46.52520399999999" lon="12.017608999999986"><ele>2316.152</ele><time>2026-10-02T12:31:11Z</time></trkpt><trkpt lat="46.52525699999999" lon="12.017603999999986"><ele>2317.288</ele><time>2026-10-02T12:31:17Z</time></trkpt><trkpt lat="46.525305999999986" lon="12.017604999999985"><ele>2318.543</ele><time>2026-10-02T12:31:22Z</time></trkpt><trkpt lat="46.525348999999984" lon="12.017638999999985"><ele>2319.677</ele><time>2026-10-02T12:31:29Z</time></trkpt><trkpt lat="46.52539499999998" lon="12.017647999999985"><ele>2320.361</ele><time>2026-10-02T12:31:36Z</time></trkpt><trkpt lat="46.525449999999985" lon="12.017644999999986"><ele>2321.227</ele><time>2026-10-02T12:31:42Z</time></trkpt><trkpt lat="46.52550199999998" lon="12.017643999999986"><ele>2322.509</ele><time>2026-10-02T12:31:50Z</time></trkpt><trkpt lat="46.52554499999998" lon="12.017688999999987"><ele>2323.579</ele><time>2026-10-02T12:31:56Z</time></trkpt><trkpt lat="46.52558699999998" lon="12.017713999999987"><ele>2324.335</ele><time>2026-10-02T12:32:04Z</time></trkpt><trkpt lat="46.52563699999998" lon="12.017691999999988"><ele>2325.286</ele><time>2026-10-02T12:32:22Z</time></trkpt><trkpt lat="46.52568299999998" lon="12.017682999999987"><ele>2326.017</ele><time>2026-10-02T12:32:35Z</time></trkpt><trkpt lat="46.52573299999998" lon="12.017666999999987"><ele>2326.821</ele><time>2026-10-02T12:32:41Z</time></trkpt><trkpt lat="46.52578199999998" lon="12.017638999999987"><ele>2327.772</ele><time>2026-10-02T12:32:47Z</time></trkpt><trkpt lat="46.52582899999998" lon="12.017621999999987"><ele>2328.547</ele><time>2026-10-02T12:32:54Z</time></trkpt><trkpt lat="46.52587799999998" lon="12.017623999999987"><ele>2329.273</ele><time>2026-10-02T12:33:06Z</time></trkpt><trkpt lat="46.52592299999998" lon="12.017657999999987"><ele>2330.098</ele><time>2026-10-02T12:33:15Z</time></trkpt><trkpt lat="46.52596999999998" lon="12.017661999999987"><ele>2331.291</ele><time>2026-10-02T12:33:23Z</time></trkpt><trkpt lat="46.52601899999998" lon="12.017677999999988"><ele>2332.481</ele><time>2026-10-02T12:33:35Z</time></trkpt><trkpt lat="46.526061999999975" lon="12.017700999999988"><ele>2333.419</ele><time>2026-10-02T12:33:56Z</time></trkpt><trkpt lat="46.526106999999975" lon="12.017708999999988"><ele>2334.809</ele><time>2026-10-02T12:34:03Z</time></trkpt><trkpt lat="46.526134999999975" lon="12.017652999999987"><ele>2336.351</ele><time>2026-10-02T12:34:15Z</time></trkpt><trkpt lat="46.52618099999997" lon="12.017699999999987"><ele>2337.547</ele><time>2026-10-02T12:34:27Z</time></trkpt><trkpt lat="46.52622999999997" lon="12.017696999999988"><ele>2338.688</ele><time>2026-10-02T12:34:38Z</time></trkpt><trkpt lat="46.52627399999997" lon="12.017720999999987"><ele>2339.749</ele><time>2026-10-02T12:34:46Z</time></trkpt><trkpt lat="46.52632499999997" lon="12.017697999999987"><ele>2341.073</ele><time>2026-10-02T12:34:55Z</time></trkpt><trkpt lat="46.526365999999975" lon="12.017651999999988"><ele>2342.514</ele><time>2026-10-02T12:35:11Z</time></trkpt><trkpt lat="46.526418999999976" lon="12.017622999999988"><ele>2344.129</ele><time>2026-10-02T12:35:34Z</time></trkpt><trkpt lat="46.52642399999998" lon="12.017552999999989"><ele>2346.275</ele><time>2026-10-02T12:35:41Z</time></trkpt><trkpt lat="46.526460999999976" lon="12.01758999999999"><ele>2347.880</ele><time>2026-10-02T12:35:47Z</time></trkpt><trkpt lat="46.526505999999976" lon="12.017597999999989"><ele>2348.523</ele><time>2026-10-02T12:35:56Z</time></trkpt><trkpt lat="46.52655299999998" lon="12.017602999999989"><ele>2348.983</ele><time>2026-10-02T12:36:02Z</time></trkpt><trkpt lat="46.52660599999998" lon="12.017593999999988"><ele>2349.611</ele><time>2026-10-02T12:36:10Z</time></trkpt><trkpt lat="46.52665999999998" lon="12.017607999999989"><ele>2350.609</ele><time>2026-10-02T12:36:19Z</time></trkpt><trkpt lat="46.526705999999976" lon="12.017602999999989"><ele>2351.994</ele><time>2026-10-02T12:36:26Z</time></trkpt><trkpt lat="46.52675499999997" lon="12.01760899999999"><ele>2353.480</ele><time>2026-10-02T12:36:32Z</time></trkpt><trkpt lat="46.52680699999997" lon="12.017597999999989"><ele>2354.911</ele><time>2026-10-02T12:36:42Z</time></trkpt><trkpt lat="46.52685199999997" lon="12.017623999999989"><ele>2356.152</ele><time>2026-10-02T12:36:50Z</time></trkpt><trkpt lat="46.52690099999997" lon="12.017598999999988"><ele>2357.346</ele><time>2026-10-02T12:37:00Z</time></trkpt><trkpt lat="46.526943999999965" lon="12.017577999999988"><ele>2358.767</ele><time>2026-10-02T12:37:13Z</time></trkpt><trkpt lat="46.52699799999996" lon="12.017574999999988"><ele>2360.312</ele><time>2026-10-02T12:37:20Z</time></trkpt><trkpt lat="46.52704399999996" lon="12.017565999999988"><ele>2362.358</ele><time>2026-10-02T12:37:28Z</time></trkpt><trkpt lat="46.52708999999996" lon="12.017566999999987"><ele>2364.033</ele><time>2026-10-02T12:37:36Z</time></trkpt><trkpt lat="46.527135999999956" lon="12.017578999999987"><ele>2365.686</ele><time>2026-10-02T12:37:45Z</time></trkpt><trkpt lat="46.527183999999956" lon="12.017535999999987"><ele>2367.360</ele><time>2026-10-02T12:38:05Z</time></trkpt><trkpt lat="46.52722999999995" lon="12.017525999999988"><ele>2369.026</ele><time>2026-10-02T12:38:16Z</time></trkpt><trkpt lat="46.527273999999956" lon="12.017501999999988"><ele>2371.309</ele><time>2026-10-02T12:38:24Z</time></trkpt><trkpt lat="46.527302999999954" lon="12.017444999999988"><ele>2373.040</ele><time>2026-10-02T12:38:41Z</time></trkpt><trkpt lat="46.527335999999956" lon="12.017390999999987"><ele>2374.116</ele><time>2026-10-02T12:38:48Z</time></trkpt><trkpt lat="46.52735399999995" lon="12.017319999999987"><ele>2376.727</ele><time>2026-10-02T12:38:53Z</time></trkpt><trkpt lat="46.52737499999995" lon="12.017254999999988"><ele>2379.118</ele><time>2026-10-02T12:39:29Z</time></trkpt><trkpt lat="46.52738699999995" lon="12.017190999999988"><ele>2380.432</ele><time>2026-10-02T12:39:40Z</time></trkpt><trkpt lat="46.527356999999945" lon="12.017138999999988"><ele>2382.793</ele><time>2026-10-02T12:39:55Z</time></trkpt><trkpt lat="46.52739299999995" lon="12.017099999999989"><ele>2385.488</ele><time>2026-10-02T12:40:14Z</time></trkpt><trkpt lat="46.527441999999944" lon="12.017108999999989"><ele>2387.084</ele><time>2026-10-02T12:40:25Z</time></trkpt><trkpt lat="46.52748199999994" lon="12.017061999999989"><ele>2388.079</ele><time>2026-10-02T12:40:37Z</time></trkpt><trkpt lat="46.527505999999946" lon="12.017132999999989"><ele>2388.689</ele><time>2026-10-02T12:41:09Z</time></trkpt><trkpt lat="46.527545999999944" lon="12.017164999999988"><ele>2389.706</ele><time>2026-10-02T12:41:35Z</time></trkpt><trkpt lat="46.52757999999994" lon="12.017207999999988"><ele>2392.426</ele><time>2026-10-02T12:41:41Z</time></trkpt><trkpt lat="46.52763199999994" lon="12.017178999999988"><ele>2394.209</ele><time>2026-10-02T12:41:48Z</time></trkpt><trkpt lat="46.52767699999994" lon="12.017211999999988"><ele>2395.010</ele><time>2026-10-02T12:41:56Z</time></trkpt><trkpt lat="46.52770799999994" lon="12.017152999999988"><ele>2396.386</ele><time>2026-10-02T12:42:04Z</time></trkpt><trkpt lat="46.52774399999994" lon="12.017098999999988"><ele>2397.887</ele><time>2026-10-02T12:42:09Z</time></trkpt><trkpt lat="46.52778099999994" lon="12.017061999999987"><ele>2399.588</ele><time>2026-10-02T12:42:38Z</time></trkpt><trkpt lat="46.527804999999944" lon="12.017120999999987"><ele>2401.022</ele><time>2026-10-02T12:42:51Z</time></trkpt><trkpt lat="46.52784299999995" lon="12.017157999999988"><ele>2401.683</ele><time>2026-10-02T12:43:03Z</time></trkpt><trkpt lat="46.527885999999945" lon="12.017188999999988"><ele>2401.958</ele><time>2026-10-02T12:43:13Z</time></trkpt><trkpt lat="46.527936999999945" lon="12.017175999999989"><ele>2403.334</ele><time>2026-10-02T12:43:44Z</time></trkpt><trkpt lat="46.527902999999945" lon="12.017064999999988"><ele>2406.319</ele><time>2026-10-02T12:45:15Z</time></trkpt><trkpt lat="46.527899999999946" lon="12.016985999999989"><ele>2407.776</ele><time>2026-10-02T12:45:56Z</time></trkpt><trkpt lat="46.527874999999945" lon="12.017062999999988"><ele>2407.790</ele><time>2026-10-02T12:45:59Z</time></trkpt><trkpt lat="46.52788699999994" lon="12.017139999999987"><ele>2407.719</ele><time>2026-10-02T12:46:01Z</time></trkpt><trkpt lat="46.527910999999946" lon="12.017196999999987"><ele>2407.709</ele><time>2026-10-02T12:51:19Z</time></trkpt><trkpt lat="46.52793299999995" lon="12.017131999999988"><ele>2407.729</ele><time>2026-10-02T12:52:28Z</time></trkpt><trkpt lat="46.52789099999995" lon="12.017156999999989"><ele>2407.735</ele><time>2026-10-02T12:53:24Z</time></trkpt><trkpt lat="46.527925999999944" lon="12.017201999999989"><ele>2407.796</ele><time>2026-10-02T12:55:09Z</time></trkpt><trkpt lat="46.52798399999995" lon="12.017179999999989"><ele>2407.857</ele><time>2026-10-02T12:55:24Z</time></trkpt><trkpt lat="46.528018999999944" lon="12.017127999999989"><ele>2407.971</ele><time>2026-10-02T12:55:29Z</time></trkpt><trkpt lat="46.52805699999995" lon="12.01709199999999"><ele>2408.642</ele><time>2026-10-02T12:55:31Z</time></trkpt><trkpt lat="46.52809299999995" lon="12.01703699999999"><ele>2409.667</ele><time>2026-10-02T12:55:36Z</time></trkpt><trkpt lat="46.52812699999995" lon="12.01698499999999"><ele>2410.393</ele><time>2026-10-02T12:55:41Z</time></trkpt><trkpt lat="46.52815999999995" lon="12.01692999999999"><ele>2412.168</ele><time>2026-10-02T12:55:45Z</time></trkpt><trkpt lat="46.52818599999995" lon="12.01687599999999"><ele>2414.153</ele><time>2026-10-02T12:55:52Z</time></trkpt><trkpt lat="46.52822199999995" lon="12.01683299999999"><ele>2415.504</ele><time>2026-10-02T12:56:00Z</time></trkpt><trkpt lat="46.52825199999995" lon="12.01676199999999"><ele>2417.614</ele><time>2026-10-02T12:56:13Z</time></trkpt><trkpt lat="46.52819599999995" lon="12.016738999999989"><ele>2420.109</ele><time>2026-10-02T12:56:41Z</time></trkpt><trkpt lat="46.52816199999995" lon="12.016676999999989"><ele>2423.077</ele><time>2026-10-02T12:56:46Z</time></trkpt><trkpt lat="46.52812499999995" lon="12.01662199999999"><ele>2424.933</ele><time>2026-10-02T12:56:50Z</time></trkpt><trkpt lat="46.52807799999995" lon="12.016577999999988"><ele>2424.944</ele><time>2026-10-02T12:56:54Z</time></trkpt><trkpt lat="46.528045999999954" lon="12.016524999999989"><ele>2424.935</ele><time>2026-10-02T12:57:00Z</time></trkpt><trkpt lat="46.528039999999955" lon="12.016456999999988"><ele>2424.999</ele><time>2026-10-02T12:57:08Z</time></trkpt><trkpt lat="46.527999999999956" lon="12.016407999999988"><ele>2424.940</ele><time>2026-10-02T12:57:14Z</time></trkpt><trkpt lat="46.527968999999956" lon="12.016351999999987"><ele>2425.645</ele><time>2026-10-02T12:57:19Z</time></trkpt><trkpt lat="46.527918999999955" lon="12.016354999999987"><ele>2426.621</ele><time>2026-10-02T12:57:37Z</time></trkpt><trkpt lat="46.52787199999995" lon="12.016335999999987"><ele>2427.446</ele><time>2026-10-02T12:57:42Z</time></trkpt><trkpt lat="46.52782699999995" lon="12.016336999999986"><ele>2428.763</ele><time>2026-10-02T12:57:48Z</time></trkpt><trkpt lat="46.52777199999995" lon="12.016333999999986"><ele>2429.744</ele><time>2026-10-02T12:57:53Z</time></trkpt><trkpt lat="46.52781999999995" lon="12.016331999999986"><ele>2430.418</ele><time>2026-10-02T12:58:06Z</time></trkpt><trkpt lat="46.52786499999995" lon="12.016375999999987"><ele>2431.309</ele><time>2026-10-02T12:58:10Z</time></trkpt><trkpt lat="46.52792099999995" lon="12.016376999999986"><ele>2431.328</ele><time>2026-10-02T12:58:16Z</time></trkpt><trkpt lat="46.52796799999995" lon="12.016384999999985"><ele>2431.364</ele><time>2026-10-02T12:58:22Z</time></trkpt><trkpt lat="46.528008999999955" lon="12.016418999999985"><ele>2430.925</ele><time>2026-10-02T12:58:26Z</time></trkpt><trkpt lat="46.528039999999955" lon="12.016467999999985"><ele>2429.766</ele><time>2026-10-02T12:58:37Z</time></trkpt><trkpt lat="46.528073999999954" lon="12.016511999999986"><ele>2428.950</ele><time>2026-10-02T12:58:41Z</time></trkpt><trkpt lat="46.52811199999996" lon="12.016546999999987"><ele>2427.831</ele><time>2026-10-02T12:58:45Z</time></trkpt><trkpt lat="46.52814799999996" lon="12.016592999999986"><ele>2427.396</ele><time>2026-10-02T12:58:59Z</time></trkpt><trkpt lat="46.52819099999996" lon="12.016617999999987"><ele>2427.342</ele><time>2026-10-02T12:59:23Z</time></trkpt><trkpt lat="46.52823799999996" lon="12.016638999999987"><ele>2427.327</ele><time>2026-10-02T13:00:16Z</time></trkpt><trkpt lat="46.52828199999996" lon="12.016658999999986"><ele>2427.986</ele><time>2026-10-02T13:00:53Z</time></trkpt><trkpt lat="46.52832099999996" lon="12.016695999999987"><ele>2429.260</ele><time>2026-10-02T13:01:23Z</time></trkpt><trkpt lat="46.528364999999965" lon="12.016752999999987"><ele>2430.526</ele><time>2026-10-02T13:01:26Z</time></trkpt><trkpt lat="46.528403999999966" lon="12.016795999999987"><ele>2431.009</ele><time>2026-10-02T13:01:30Z</time></trkpt><trkpt lat="46.52844599999997" lon="12.016841999999986"><ele>2431.260</ele><time>2026-10-02T13:01:35Z</time></trkpt><trkpt lat="46.528485999999965" lon="12.016893999999986"><ele>2431.776</ele><time>2026-10-02T13:01:40Z</time></trkpt><trkpt lat="46.528516999999965" lon="12.016954999999987"><ele>2432.547</ele><time>2026-10-02T13:01:45Z</time></trkpt><trkpt lat="46.52856399999997" lon="12.016992999999987"><ele>2433.488</ele><time>2026-10-02T13:01:49Z</time></trkpt><trkpt lat="46.52860499999997" lon="12.017031999999986"><ele>2434.192</ele><time>2026-10-02T13:01:54Z</time></trkpt><trkpt lat="46.52862799999997" lon="12.017091999999986"><ele>2434.733</ele><time>2026-10-02T13:02:02Z</time></trkpt><trkpt lat="46.52859199999997" lon="12.017037999999985"><ele>2435.658</ele><time>2026-10-02T13:02:21Z</time></trkpt><trkpt lat="46.52864699999997" lon="12.017059999999985"><ele>2436.794</ele><time>2026-10-02T13:02:42Z</time></trkpt><trkpt lat="46.52864599999997" lon="12.017127999999985"><ele>2437.439</ele><time>2026-10-02T13:03:30Z</time></trkpt><trkpt lat="46.52868399999998" lon="12.017184999999985"><ele>2437.642</ele><time>2026-10-02T13:03:36Z</time></trkpt><trkpt lat="46.52870099999998" lon="12.017247999999986"><ele>2437.822</ele><time>2026-10-02T13:03:41Z</time></trkpt><trkpt lat="46.52872799999998" lon="12.017306999999986"><ele>2438.014</ele><time>2026-10-02T13:03:46Z</time></trkpt><trkpt lat="46.52874699999998" lon="12.017373999999986"><ele>2438.609</ele><time>2026-10-02T13:03:52Z</time></trkpt><trkpt lat="46.528762999999984" lon="12.017439999999986"><ele>2439.666</ele><time>2026-10-02T13:04:15Z</time></trkpt><trkpt lat="46.52878699999999" lon="12.017495999999987"><ele>2440.652</ele><time>2026-10-02T13:04:19Z</time></trkpt><trkpt lat="46.52879699999999" lon="12.017559999999987"><ele>2442.343</ele><time>2026-10-02T13:04:38Z</time></trkpt><trkpt lat="46.52881799999999" lon="12.017628999999987"><ele>2443.534</ele><time>2026-10-02T13:04:57Z</time></trkpt><trkpt lat="46.528832999999985" lon="12.017709999999987"><ele>2444.238</ele><time>2026-10-02T13:05:04Z</time></trkpt><trkpt lat="46.52885899999998" lon="12.017774999999986"><ele>2444.959</ele><time>2026-10-02T13:05:10Z</time></trkpt><trkpt lat="46.52887599999998" lon="12.017845999999986"><ele>2445.334</ele><time>2026-10-02T13:05:16Z</time></trkpt><trkpt lat="46.52890099999998" lon="12.017904999999987"><ele>2446.120</ele><time>2026-10-02T13:05:21Z</time></trkpt><trkpt lat="46.528911999999984" lon="12.017980999999986"><ele>2446.965</ele><time>2026-10-02T13:05:26Z</time></trkpt><trkpt lat="46.52893899999999" lon="12.018043999999987"><ele>2447.862</ele><time>2026-10-02T13:05:31Z</time></trkpt><trkpt lat="46.528956999999984" lon="12.018120999999987"><ele>2448.783</ele><time>2026-10-02T13:05:36Z</time></trkpt><trkpt lat="46.528981999999985" lon="12.018182999999986"><ele>2449.711</ele><time>2026-10-02T13:05:41Z</time></trkpt><trkpt lat="46.52900599999999" lon="12.018239999999986"><ele>2450.909</ele><time>2026-10-02T13:05:46Z</time></trkpt><trkpt lat="46.529023999999986" lon="12.018307999999987"><ele>2451.988</ele><time>2026-10-02T13:06:18Z</time></trkpt><trkpt lat="46.52905399999999" lon="12.018355999999986"><ele>2452.834</ele><time>2026-10-02T13:06:25Z</time></trkpt><trkpt lat="46.52906999999999" lon="12.018424999999986"><ele>2454.045</ele><time>2026-10-02T13:06:30Z</time></trkpt><trkpt lat="46.52909999999999" lon="12.018493999999986"><ele>2454.996</ele><time>2026-10-02T13:06:59Z</time></trkpt><trkpt lat="46.52911999999999" lon="12.018553999999986"><ele>2455.140</ele><time>2026-10-02T13:07:03Z</time></trkpt><trkpt lat="46.52916899999999" lon="12.018584999999986"><ele>2455.611</ele><time>2026-10-02T13:07:08Z</time></trkpt><trkpt lat="46.52921699999999" lon="12.018609999999986"><ele>2456.156</ele><time>2026-10-02T13:07:15Z</time></trkpt><trkpt lat="46.52924499999999" lon="12.018552999999986"><ele>2456.512</ele><time>2026-10-02T13:07:43Z</time></trkpt><trkpt lat="46.529296999999985" lon="12.018549999999987"><ele>2457.937</ele><time>2026-10-02T13:07:49Z</time></trkpt><trkpt lat="46.52934299999998" lon="12.018523999999987"><ele>2459.925</ele><time>2026-10-02T13:07:54Z</time></trkpt><trkpt lat="46.529375999999985" lon="12.018471999999987"><ele>2461.226</ele><time>2026-10-02T13:07:58Z</time></trkpt><trkpt lat="46.52941699999999" lon="12.018437999999987"><ele>2461.908</ele><time>2026-10-02T13:08:03Z</time></trkpt><trkpt lat="46.52943999999999" lon="12.018381999999987"><ele>2462.909</ele><time>2026-10-02T13:08:07Z</time></trkpt><trkpt lat="46.529465999999985" lon="12.018327999999986"><ele>2464.384</ele><time>2026-10-02T13:08:11Z</time></trkpt><trkpt lat="46.52949499999998" lon="12.018272999999986"><ele>2465.650</ele><time>2026-10-02T13:08:27Z</time></trkpt><trkpt lat="46.52951799999998" lon="12.018207999999987"><ele>2466.551</ele><time>2026-10-02T13:08:32Z</time></trkpt><trkpt lat="46.529544999999985" lon="12.018151999999986"><ele>2468.432</ele><time>2026-10-02T13:08:42Z</time></trkpt><trkpt lat="46.52953799999999" lon="12.018086999999987"><ele>2470.186</ele><time>2026-10-02T13:09:07Z</time></trkpt><trkpt lat="46.529563999999986" lon="12.018031999999987"><ele>2471.387</ele><time>2026-10-02T13:09:17Z</time></trkpt><trkpt lat="46.529600999999985" lon="12.017968999999987"><ele>2473.362</ele><time>2026-10-02T13:09:25Z</time></trkpt><trkpt lat="46.52963399999999" lon="12.017918999999987"><ele>2475.138</ele><time>2026-10-02T13:09:38Z</time></trkpt><trkpt lat="46.52966699999999" lon="12.017870999999987"><ele>2476.613</ele><time>2026-10-02T13:09:47Z</time></trkpt><trkpt lat="46.52969899999999" lon="12.017811999999987"><ele>2478.689</ele><time>2026-10-02T13:09:58Z</time></trkpt><trkpt lat="46.52971199999999" lon="12.017743999999986"><ele>2480.706</ele><time>2026-10-02T13:10:30Z</time></trkpt><trkpt lat="46.52972599999999" lon="12.017679999999986"><ele>2482.826</ele><time>2026-10-02T13:10:38Z</time></trkpt><trkpt lat="46.52972299999999" lon="12.017606999999986"><ele>2485.209</ele><time>2026-10-02T13:10:52Z</time></trkpt><trkpt lat="46.52972199999999" lon="12.017534999999986"><ele>2486.880</ele><time>2026-10-02T13:10:58Z</time></trkpt><trkpt lat="46.529720999999995" lon="12.017461999999986"><ele>2487.926</ele><time>2026-10-02T13:11:24Z</time></trkpt><trkpt lat="46.52972" lon="12.017389999999986"><ele>2488.777</ele><time>2026-10-02T13:11:29Z</time></trkpt><trkpt lat="46.529722" lon="12.017301999999987"><ele>2489.548</ele><time>2026-10-02T13:11:35Z</time></trkpt><trkpt lat="46.529705" lon="12.017233999999986"><ele>2490.432</ele><time>2026-10-02T13:11:41Z</time></trkpt><trkpt lat="46.52966" lon="12.017211999999986"><ele>2491.363</ele><time>2026-10-02T13:12:00Z</time></trkpt><trkpt lat="46.529646" lon="12.017148999999986"><ele>2492.458</ele><time>2026-10-02T13:12:12Z</time></trkpt><trkpt lat="46.529659" lon="12.017085999999985"><ele>2493.524</ele><time>2026-10-02T13:12:17Z</time></trkpt><trkpt lat="46.529669000000005" lon="12.017008999999986"><ele>2494.179</ele><time>2026-10-02T13:12:28Z</time></trkpt><trkpt lat="46.52964600000001" lon="12.016950999999986"><ele>2494.666</ele><time>2026-10-02T13:12:43Z</time></trkpt><trkpt lat="46.529655000000005" lon="12.016884999999986"><ele>2495.529</ele><time>2026-10-02T13:13:15Z</time></trkpt><trkpt lat="46.52962600000001" lon="12.016824999999987"><ele>2496.821</ele><time>2026-10-02T13:13:21Z</time></trkpt><trkpt lat="46.52960800000001" lon="12.016762999999987"><ele>2497.909</ele><time>2026-10-02T13:13:30Z</time></trkpt><trkpt lat="46.52959400000001" lon="12.016691999999987"><ele>2498.228</ele><time>2026-10-02T13:13:49Z</time></trkpt><trkpt lat="46.52957900000001" lon="12.016625999999986"><ele>2498.554</ele><time>2026-10-02T13:13:55Z</time></trkpt><trkpt lat="46.52956900000001" lon="12.016552999999986"><ele>2498.965</ele><time>2026-10-02T13:13:59Z</time></trkpt><trkpt lat="46.52955000000001" lon="12.016493999999986"><ele>2499.296</ele><time>2026-10-02T13:14:05Z</time></trkpt><trkpt lat="46.52954400000001" lon="12.016419999999986"><ele>2499.670</ele><time>2026-10-02T13:14:11Z</time></trkpt><trkpt lat="46.529528000000006" lon="12.016356999999985"><ele>2500.181</ele><time>2026-10-02T13:14:16Z</time></trkpt><trkpt lat="46.529506000000005" lon="12.016295999999985"><ele>2500.846</ele><time>2026-10-02T13:14:21Z</time></trkpt><trkpt lat="46.529482" lon="12.016236999999984"><ele>2501.552</ele><time>2026-10-02T13:14:27Z</time></trkpt><trkpt lat="46.529444" lon="12.016190999999985"><ele>2502.157</ele><time>2026-10-02T13:14:35Z</time></trkpt><trkpt lat="46.529419" lon="12.016130999999985"><ele>2502.742</ele><time>2026-10-02T13:14:40Z</time></trkpt><trkpt lat="46.529384" lon="12.016073999999985"><ele>2503.422</ele><time>2026-10-02T13:14:49Z</time></trkpt><trkpt lat="46.529352" lon="12.016020999999986"><ele>2504.014</ele><time>2026-10-02T13:14:56Z</time></trkpt><trkpt lat="46.529335" lon="12.015943999999987"><ele>2504.809</ele><time>2026-10-02T13:15:03Z</time></trkpt><trkpt lat="46.529303000000006" lon="12.015892999999988"><ele>2505.926</ele><time>2026-10-02T13:15:12Z</time></trkpt><trkpt lat="46.529259" lon="12.015846999999988"><ele>2507.182</ele><time>2026-10-02T13:15:18Z</time></trkpt><trkpt lat="46.529222000000004" lon="12.015803999999989"><ele>2508.773</ele><time>2026-10-02T13:15:26Z</time></trkpt><trkpt lat="46.529179000000006" lon="12.01576499999999"><ele>2510.344</ele><time>2026-10-02T13:15:41Z</time></trkpt><trkpt lat="46.529137000000006" lon="12.01572599999999"><ele>2511.918</ele><time>2026-10-02T13:15:47Z</time></trkpt><trkpt lat="46.529112000000005" lon="12.01565999999999"><ele>2513.549</ele><time>2026-10-02T13:16:37Z</time></trkpt><trkpt lat="46.529065" lon="12.01564799999999"><ele>2514.964</ele><time>2026-10-02T13:16:42Z</time></trkpt><trkpt lat="46.529026" lon="12.01569499999999"><ele>2516.170</ele><time>2026-10-02T13:16:49Z</time></trkpt><trkpt lat="46.528985" lon="12.01572499999999"><ele>2516.325</ele><time>2026-10-02T13:16:54Z</time></trkpt><trkpt lat="46.528969" lon="12.01579699999999"><ele>2516.389</ele><time>2026-10-02T13:17:04Z</time></trkpt><trkpt lat="46.528988" lon="12.01587099999999"><ele>2516.306</ele><time>2026-10-02T13:17:47Z</time></trkpt><trkpt lat="46.528945" lon="12.01585399999999"><ele>2515.426</ele><time>2026-10-02T13:18:19Z</time></trkpt><trkpt lat="46.528911" lon="12.01580199999999"><ele>2514.209</ele><time>2026-10-02T13:20:33Z</time></trkpt><trkpt lat="46.528956" lon="12.01580099999999"><ele>2513.240</ele><time>2026-10-02T13:22:31Z</time></trkpt><trkpt lat="46.528982" lon="12.015745999999991"><ele>2512.946</ele><time>2026-10-02T13:23:06Z</time></trkpt><trkpt lat="46.528999999999996" lon="12.01568499999999"><ele>2512.997</ele><time>2026-10-02T13:23:33Z</time></trkpt><trkpt lat="46.529011999999994" lon="12.01561399999999"><ele>2512.928</ele><time>2026-10-02T13:23:42Z</time></trkpt><trkpt lat="46.528991999999995" lon="12.01554599999999"><ele>2513.522</ele><time>2026-10-02T13:23:48Z</time></trkpt><trkpt lat="46.529011999999994" lon="12.01548399999999"><ele>2514.833</ele><time>2026-10-02T13:24:05Z</time></trkpt><trkpt lat="46.529028" lon="12.01541299999999"><ele>2516.088</ele><time>2026-10-02T13:24:11Z</time></trkpt><trkpt lat="46.529019999999996" lon="12.01534299999999"><ele>2517.364</ele><time>2026-10-02T13:24:16Z</time></trkpt><trkpt lat="46.529033" lon="12.015273999999991"><ele>2518.399</ele><time>2026-10-02T13:24:37Z</time></trkpt><trkpt lat="46.529059" lon="12.015211999999991"><ele>2518.924</ele><time>2026-10-02T13:24:43Z</time></trkpt><trkpt lat="46.529081" lon="12.015146999999992"><ele>2519.804</ele><time>2026-10-02T13:24:51Z</time></trkpt><trkpt lat="46.529109" lon="12.015092999999991"><ele>2520.914</ele><time>2026-10-02T13:24:59Z</time></trkpt><trkpt lat="46.52915" lon="12.01504399999999"><ele>2522.109</ele><time>2026-10-02T13:25:05Z</time></trkpt><trkpt lat="46.529195" lon="12.014997999999991"><ele>2523.724</ele><time>2026-10-02T13:25:13Z</time></trkpt><trkpt lat="46.529239000000004" lon="12.014962999999991"><ele>2525.220</ele><time>2026-10-02T13:25:24Z</time></trkpt><trkpt lat="46.529291" lon="12.01494199999999"><ele>2526.871</ele><time>2026-10-02T13:25:32Z</time></trkpt><trkpt lat="46.529338" lon="12.01494299999999"><ele>2528.652</ele><time>2026-10-02T13:25:39Z</time></trkpt><trkpt lat="46.52939" lon="12.01491999999999"><ele>2530.236</ele><time>2026-10-02T13:25:55Z</time></trkpt><trkpt lat="46.52944" lon="12.014901999999989"><ele>2531.747</ele><time>2026-10-02T13:26:03Z</time></trkpt><trkpt lat="46.529498000000004" lon="12.014899999999988"><ele>2533.632</ele><time>2026-10-02T13:26:11Z</time></trkpt><trkpt lat="46.529551000000005" lon="12.014899999999988"><ele>2535.318</ele><time>2026-10-02T13:26:23Z</time></trkpt><trkpt lat="46.529597" lon="12.01488699999999"><ele>2536.793</ele><time>2026-10-02T13:26:41Z</time></trkpt><trkpt lat="46.529645" lon="12.01488599999999"><ele>2538.472</ele><time>2026-10-02T13:26:50Z</time></trkpt><trkpt lat="46.52968" lon="12.01484399999999"><ele>2540.013</ele><time>2026-10-02T13:26:57Z</time></trkpt><trkpt lat="46.52969" lon="12.01477999999999"><ele>2541.614</ele><time>2026-10-02T13:27:08Z</time></trkpt><trkpt lat="46.529679" lon="12.01470799999999"><ele>2543.109</ele><time>2026-10-02T13:27:18Z</time></trkpt><trkpt lat="46.529648" lon="12.01465599999999"><ele>2544.799</ele><time>2026-10-02T13:27:25Z</time></trkpt><trkpt lat="46.529673" lon="12.01459699999999"><ele>2546.415</ele><time>2026-10-02T13:27:37Z</time></trkpt><trkpt lat="46.529720000000005" lon="12.01458299999999"><ele>2547.946</ele><time>2026-10-02T13:27:57Z</time></trkpt><trkpt lat="46.529771000000004" lon="12.01456299999999"><ele>2549.817</ele><time>2026-10-02T13:28:05Z</time></trkpt><trkpt lat="46.529814" lon="12.01452999999999"><ele>2552.031</ele><time>2026-10-02T13:28:19Z</time></trkpt><trkpt lat="46.529834" lon="12.01447099999999"><ele>2553.162</ele><time>2026-10-02T13:28:28Z</time></trkpt><trkpt lat="46.529845" lon="12.01440099999999"><ele>2554.497</ele><time>2026-10-02T13:28:42Z</time></trkpt><trkpt lat="46.529851" lon="12.01432299999999"><ele>2556.243</ele><time>2026-10-02T13:30:17Z</time></trkpt><trkpt lat="46.529808" lon="12.01428699999999"><ele>2557.948</ele><time>2026-10-02T13:30:36Z</time></trkpt><trkpt lat="46.529796000000005" lon="12.01422399999999"><ele>2560.172</ele><time>2026-10-02T13:30:43Z</time></trkpt><trkpt lat="46.529801000000006" lon="12.014148999999989"><ele>2561.513</ele><time>2026-10-02T13:30:53Z</time></trkpt><trkpt lat="46.52977200000001" lon="12.014094999999989"><ele>2562.114</ele><time>2026-10-02T13:31:25Z</time></trkpt><trkpt lat="46.52976900000001" lon="12.014020999999989"><ele>2563.309</ele><time>2026-10-02T13:31:33Z</time></trkpt><trkpt lat="46.529790000000006" lon="12.01395399999999"><ele>2564.899</ele><time>2026-10-02T13:31:48Z</time></trkpt><trkpt lat="46.52979200000001" lon="12.013887999999989"><ele>2566.155</ele><time>2026-10-02T13:31:55Z</time></trkpt><trkpt lat="46.52975500000001" lon="12.013845999999988"><ele>2568.346</ele><time>2026-10-02T13:32:06Z</time></trkpt><trkpt lat="46.529728000000006" lon="12.013782999999988"><ele>2571.257</ele><time>2026-10-02T13:32:15Z</time></trkpt><trkpt lat="46.52973800000001" lon="12.013712999999989"><ele>2572.731</ele><time>2026-10-02T13:32:39Z</time></trkpt><trkpt lat="46.52971900000001" lon="12.013652999999989"><ele>2573.582</ele><time>2026-10-02T13:32:46Z</time></trkpt><trkpt lat="46.52976900000001" lon="12.01364799999999"><ele>2575.467</ele><time>2026-10-02T13:33:08Z</time></trkpt><trkpt lat="46.529815000000006" lon="12.01363299999999"><ele>2577.393</ele><time>2026-10-02T13:33:32Z</time></trkpt><trkpt lat="46.529864" lon="12.01360999999999"><ele>2578.948</ele><time>2026-10-02T13:33:39Z</time></trkpt><trkpt lat="46.529909" lon="12.01359499999999"><ele>2580.455</ele><time>2026-10-02T13:33:54Z</time></trkpt><trkpt lat="46.529955" lon="12.01358499999999"><ele>2581.107</ele><time>2026-10-02T13:34:02Z</time></trkpt><trkpt lat="46.530003" lon="12.01357499999999"><ele>2582.017</ele><time>2026-10-02T13:34:07Z</time></trkpt><trkpt lat="46.530029" lon="12.01351599999999"><ele>2583.109</ele><time>2026-10-02T13:34:16Z</time></trkpt><trkpt lat="46.530063" lon="12.01345599999999"><ele>2584.297</ele><time>2026-10-02T13:34:23Z</time></trkpt><trkpt lat="46.530077" lon="12.013386999999991"><ele>2586.033</ele><time>2026-10-02T13:34:31Z</time></trkpt><trkpt lat="46.530089" lon="12.01331899999999"><ele>2588.184</ele><time>2026-10-02T13:34:38Z</time></trkpt><trkpt lat="46.530091999999996" lon="12.01324499999999"><ele>2590.185</ele><time>2026-10-02T13:34:56Z</time></trkpt><trkpt lat="46.530083999999995" lon="12.013177999999991"><ele>2592.169</ele><time>2026-10-02T13:35:03Z</time></trkpt><trkpt lat="46.530120999999994" lon="12.013139999999991"><ele>2594.080</ele><time>2026-10-02T13:35:15Z</time></trkpt><trkpt lat="46.53017499999999" lon="12.01316199999999"><ele>2595.665</ele><time>2026-10-02T13:35:22Z</time></trkpt><trkpt lat="46.53022099999999" lon="12.013205999999991"><ele>2596.761</ele><time>2026-10-02T13:35:27Z</time></trkpt><trkpt lat="46.53025199999999" lon="12.013157999999992"><ele>2597.896</ele><time>2026-10-02T13:35:38Z</time></trkpt><trkpt lat="46.53027799999999" lon="12.013100999999992"><ele>2598.612</ele><time>2026-10-02T13:35:44Z</time></trkpt><trkpt lat="46.53030899999999" lon="12.013052999999992"><ele>2599.232</ele><time>2026-10-02T13:35:55Z</time></trkpt><trkpt lat="46.530357999999985" lon="12.013062999999992"><ele>2600.105</ele><time>2026-10-02T13:36:02Z</time></trkpt><trkpt lat="46.53040499999999" lon="12.013075999999991"><ele>2601.709</ele><time>2026-10-02T13:36:10Z</time></trkpt><trkpt lat="46.530453999999985" lon="12.01308599999999"><ele>2603.043</ele><time>2026-10-02T13:36:17Z</time></trkpt><trkpt lat="46.530442999999984" lon="12.01301999999999"><ele>2603.629</ele><time>2026-10-02T13:36:48Z</time></trkpt><trkpt lat="46.53040799999999" lon="12.01295899999999"><ele>2604.060</ele><time>2026-10-02T13:36:53Z</time></trkpt><trkpt lat="46.530385999999986" lon="12.01289799999999"><ele>2604.081</ele><time>2026-10-02T13:36:58Z</time></trkpt><trkpt lat="46.53035099999999" lon="12.012838999999989"><ele>2604.065</ele><time>2026-10-02T13:37:03Z</time></trkpt><trkpt lat="46.53032199999999" lon="12.012786999999989"><ele>2604.096</ele><time>2026-10-02T13:37:08Z</time></trkpt><trkpt lat="46.53030199999999" lon="12.012725999999988"><ele>2604.091</ele><time>2026-10-02T13:37:14Z</time></trkpt><trkpt lat="46.530286999999994" lon="12.012659999999988"><ele>2604.017</ele><time>2026-10-02T13:37:38Z</time></trkpt><trkpt lat="46.530221" lon="12.012640999999988"><ele>2604.522</ele><time>2026-10-02T13:37:50Z</time></trkpt><trkpt lat="46.530187" lon="12.012592999999988"><ele>2605.955</ele><time>2026-10-02T13:37:57Z</time></trkpt><trkpt lat="46.530159999999995" lon="12.012530999999989"><ele>2607.407</ele><time>2026-10-02T13:38:01Z</time></trkpt><trkpt lat="46.53013599999999" lon="12.012469999999988"><ele>2608.117</ele><time>2026-10-02T13:38:10Z</time></trkpt><trkpt lat="46.530106999999994" lon="12.012414999999988"><ele>2608.609</ele><time>2026-10-02T13:38:14Z</time></trkpt><trkpt lat="46.530103999999994" lon="12.012342999999989"><ele>2609.957</ele><time>2026-10-02T13:38:22Z</time></trkpt><trkpt lat="46.53005699999999" lon="12.01232599999999"><ele>2611.253</ele><time>2026-10-02T13:38:36Z</time></trkpt><trkpt lat="46.53001899999999" lon="12.012273999999989"><ele>2612.294</ele><time>2026-10-02T13:38:44Z</time></trkpt><trkpt lat="46.53003799999999" lon="12.012200999999989"><ele>2613.715</ele><time>2026-10-02T13:39:25Z</time></trkpt><trkpt lat="46.53003999999999" lon="12.012132999999988"><ele>2615.359</ele><time>2026-10-02T13:39:32Z</time></trkpt><trkpt lat="46.52999499999999" lon="12.012122999999988"><ele>2616.360</ele><time>2026-10-02T13:40:03Z</time></trkpt><trkpt lat="46.52995299999999" lon="12.012159999999989"><ele>2616.735</ele><time>2026-10-02T13:40:12Z</time></trkpt><trkpt lat="46.52970899999999" lon="12.01215499999999"><ele>2616.771</ele><time>2026-10-02T13:45:43Z</time></trkpt><trkpt lat="46.52968999999999" lon="12.012081999999989"><ele>2617.326</ele><time>2026-10-02T13:47:25Z</time></trkpt><trkpt lat="46.52964199999999" lon="12.012067999999989"><ele>2617.939</ele><time>2026-10-02T13:47:55Z</time></trkpt><trkpt lat="46.52960699999999" lon="12.012011999999988"><ele>2618.501</ele><time>2026-10-02T13:48:20Z</time></trkpt><trkpt lat="46.52956199999999" lon="12.012012999999987"><ele>2619.121</ele><time>2026-10-02T13:48:39Z</time></trkpt><trkpt lat="46.529540999999995" lon="12.011951999999987"><ele>2619.609</ele><time>2026-10-02T13:49:03Z</time></trkpt><trkpt lat="46.529498999999994" lon="12.011910999999987"><ele>2621.065</ele><time>2026-10-02T13:49:11Z</time></trkpt><trkpt lat="46.529453999999994" lon="12.011844999999987"><ele>2622.321</ele><time>2026-10-02T13:49:17Z</time></trkpt><trkpt lat="46.529470999999994" lon="12.011779999999987"><ele>2622.892</ele><time>2026-10-02T13:49:25Z</time></trkpt><trkpt lat="46.52945" lon="12.011718999999987"><ele>2623.293</ele><time>2026-10-02T13:49:40Z</time></trkpt><trkpt lat="46.529464" lon="12.011655999999986"><ele>2624.127</ele><time>2026-10-02T13:50:06Z</time></trkpt><trkpt lat="46.529455999999996" lon="12.011584999999986"><ele>2625.568</ele><time>2026-10-02T13:50:13Z</time></trkpt><trkpt lat="46.529410999999996" lon="12.011624999999986"><ele>2627.273</ele><time>2026-10-02T13:50:20Z</time></trkpt><trkpt lat="46.529396999999996" lon="12.011689999999986"><ele>2628.289</ele><time>2026-10-02T13:50:27Z</time></trkpt><trkpt lat="46.52936" lon="12.011737999999985"><ele>2629.144</ele><time>2026-10-02T13:50:36Z</time></trkpt><trkpt lat="46.529329999999995" lon="12.011794999999985"><ele>2630.458</ele><time>2026-10-02T13:50:44Z</time></trkpt><trkpt lat="46.52930799999999" lon="12.011852999999984"><ele>2631.652</ele><time>2026-10-02T13:51:06Z</time></trkpt><trkpt lat="46.529317999999996" lon="12.011779999999984"><ele>2633.117</ele><time>2026-10-02T13:52:17Z</time></trkpt><trkpt lat="46.529334999999996" lon="12.011691999999984"><ele>2634.709</ele><time>2026-10-02T13:52:22Z</time></trkpt><trkpt lat="46.529346" lon="12.011620999999984"><ele>2635.857</ele><time>2026-10-02T13:52:26Z</time></trkpt><trkpt lat="46.529325" lon="12.011549999999984"><ele>2636.473</ele><time>2026-10-02T13:52:33Z</time></trkpt><trkpt lat="46.529327" lon="12.011470999999984"><ele>2636.754</ele><time>2026-10-02T13:52:47Z</time></trkpt><trkpt lat="46.529285" lon="12.011499999999984"><ele>2637.685</ele><time>2026-10-02T13:53:13Z</time></trkpt><trkpt lat="46.529261" lon="12.011556999999984"><ele>2639.689</ele><time>2026-10-02T13:53:26Z</time></trkpt><trkpt lat="46.529229" lon="12.011505999999985"><ele>2641.340</ele><time>2026-10-02T13:53:38Z</time></trkpt><trkpt lat="46.52924" lon="12.011440999999985"><ele>2642.135</ele><time>2026-10-02T13:53:43Z</time></trkpt><trkpt lat="46.529234" lon="12.011365999999985"><ele>2643.341</ele><time>2026-10-02T13:53:49Z</time></trkpt><trkpt lat="46.529188000000005" lon="12.011393999999985"><ele>2644.726</ele><time>2026-10-02T13:53:59Z</time></trkpt><trkpt lat="46.529154000000005" lon="12.011449999999986"><ele>2645.551</ele><time>2026-10-02T13:54:06Z</time></trkpt><trkpt lat="46.529121" lon="12.011498999999986"><ele>2646.601</ele><time>2026-10-02T13:54:14Z</time></trkpt><trkpt lat="46.529098000000005" lon="12.011555999999986"><ele>2648.111</ele><time>2026-10-02T13:54:22Z</time></trkpt><trkpt lat="46.529057" lon="12.011590999999987"><ele>2649.509</ele><time>2026-10-02T13:54:32Z</time></trkpt><trkpt lat="46.529048" lon="12.011655999999986"><ele>2651.197</ele><time>2026-10-02T13:54:40Z</time></trkpt><trkpt lat="46.529014000000004" lon="12.011599999999985"><ele>2652.693</ele><time>2026-10-02T13:55:07Z</time></trkpt><trkpt lat="46.52901000000001" lon="12.011530999999986"><ele>2654.174</ele><time>2026-10-02T13:56:25Z</time></trkpt><trkpt lat="46.52899800000001" lon="12.011460999999986"><ele>2655.745</ele><time>2026-10-02T13:56:32Z</time></trkpt><trkpt lat="46.52900900000001" lon="12.011392999999986"><ele>2657.159</ele><time>2026-10-02T13:56:39Z</time></trkpt><trkpt lat="46.52898600000001" lon="12.011324999999985"><ele>2658.340</ele><time>2026-10-02T13:56:46Z</time></trkpt><trkpt lat="46.52893900000001" lon="12.011300999999985"><ele>2659.585</ele><time>2026-10-02T13:56:54Z</time></trkpt><trkpt lat="46.52891600000001" lon="12.011360999999985"><ele>2660.751</ele><time>2026-10-02T13:57:15Z</time></trkpt><trkpt lat="46.52888900000001" lon="12.011424999999985"><ele>2661.756</ele><time>2026-10-02T13:57:41Z</time></trkpt><trkpt lat="46.52887700000001" lon="12.011501999999984"><ele>2662.717</ele><time>2026-10-02T13:57:47Z</time></trkpt><trkpt lat="46.528881000000005" lon="12.011570999999984"><ele>2663.987</ele><time>2026-10-02T13:57:54Z</time></trkpt><trkpt lat="46.528839000000005" lon="12.011546999999984"><ele>2664.915</ele><time>2026-10-02T14:01:08Z</time></trkpt><trkpt lat="46.528893000000004" lon="12.011590999999985"><ele>2665.109</ele><time>2026-10-02T14:01:30Z</time></trkpt><trkpt lat="46.528849" lon="12.011613999999986"><ele>2665.283</ele><time>2026-10-02T14:05:09Z</time></trkpt><trkpt lat="46.52887" lon="12.011540999999985"><ele>2665.259</ele><time>2026-10-02T14:05:26Z</time></trkpt><trkpt lat="46.528887" lon="12.011475999999986"><ele>2665.120</ele><time>2026-10-02T14:05:30Z</time></trkpt><trkpt lat="46.528855" lon="12.011425999999986"><ele>2665.131</ele><time>2026-10-02T14:05:37Z</time></trkpt><trkpt lat="46.528818" lon="12.011474999999987"><ele>2665.235</ele><time>2026-10-02T14:05:44Z</time></trkpt><trkpt lat="46.528832" lon="12.011408999999986"><ele>2665.566</ele><time>2026-10-02T14:07:22Z</time></trkpt><trkpt lat="46.528797000000004" lon="12.011366999999986"><ele>2666.251</ele><time>2026-10-02T14:07:40Z</time></trkpt><trkpt lat="46.528754000000006" lon="12.011394999999986"><ele>2667.787</ele><time>2026-10-02T14:08:04Z</time></trkpt><trkpt lat="46.52880400000001" lon="12.011363999999986"><ele>2668.982</ele><time>2026-10-02T14:08:08Z</time></trkpt><trkpt lat="46.52880100000001" lon="12.011296999999987"><ele>2669.639</ele><time>2026-10-02T14:08:13Z</time></trkpt><trkpt lat="46.52879400000001" lon="12.011227999999987"><ele>2670.001</ele><time>2026-10-02T14:08:20Z</time></trkpt><trkpt lat="46.528751000000014" lon="12.011254999999986"><ele>2670.321</ele><time>2026-10-02T14:08:26Z</time></trkpt><trkpt lat="46.528734000000014" lon="12.011320999999986"><ele>2671.109</ele><time>2026-10-02T14:08:32Z</time></trkpt><trkpt lat="46.52870100000001" lon="12.011371999999986"><ele>2672.295</ele><time>2026-10-02T14:08:46Z</time></trkpt><trkpt lat="46.52873300000001" lon="12.011321999999986"><ele>2673.591</ele><time>2026-10-02T14:09:18Z</time></trkpt><trkpt lat="46.52875700000001" lon="12.011250999999985"><ele>2674.432</ele><time>2026-10-02T14:09:23Z</time></trkpt><trkpt lat="46.528796000000014" lon="12.011212999999985"><ele>2674.433</ele><time>2026-10-02T14:09:29Z</time></trkpt><trkpt lat="46.528804000000015" lon="12.011139999999985"><ele>2674.437</ele><time>2026-10-02T14:09:39Z</time></trkpt><trkpt lat="46.52880500000001" lon="12.011060999999986"><ele>2674.258</ele><time>2026-10-02T14:09:46Z</time></trkpt><trkpt lat="46.52881200000001" lon="12.010989999999985"><ele>2674.073</ele><time>2026-10-02T14:09:51Z</time></trkpt><trkpt lat="46.528816000000006" lon="12.010923999999985"><ele>2674.049</ele><time>2026-10-02T14:09:58Z</time></trkpt><trkpt lat="46.528786000000004" lon="12.010861999999985"><ele>2674.054</ele><time>2026-10-02T14:10:38Z</time></trkpt><trkpt lat="46.528761" lon="12.010800999999985"><ele>2674.175</ele><time>2026-10-02T14:10:44Z</time></trkpt><trkpt lat="46.528716" lon="12.010809999999985"><ele>2675.028</ele><time>2026-10-02T14:10:51Z</time></trkpt><trkpt lat="46.5287" lon="12.010874999999984"><ele>2676.120</ele><time>2026-10-02T14:11:05Z</time></trkpt><trkpt lat="46.528677" lon="12.010816999999985"><ele>2677.009</ele><time>2026-10-02T14:11:12Z</time></trkpt><trkpt lat="46.52865" lon="12.010755999999985"><ele>2678.349</ele><time>2026-10-02T14:11:19Z</time></trkpt><trkpt lat="46.528607" lon="12.010788999999985"><ele>2679.415</ele><time>2026-10-02T14:11:26Z</time></trkpt><trkpt lat="46.528566" lon="12.010745999999985"><ele>2680.376</ele><time>2026-10-02T14:11:58Z</time></trkpt><trkpt lat="46.528548" lon="12.010680999999986"><ele>2681.327</ele><time>2026-10-02T14:12:05Z</time></trkpt><trkpt lat="46.528539" lon="12.010607999999985"><ele>2683.131</ele><time>2026-10-02T14:12:11Z</time></trkpt><trkpt lat="46.528546" lon="12.010537999999986"><ele>2685.082</ele><time>2026-10-02T14:12:25Z</time></trkpt><trkpt lat="46.528538" lon="12.010464999999986"><ele>2685.967</ele><time>2026-10-02T14:12:33Z</time></trkpt><trkpt lat="46.528515999999996" lon="12.010404999999986"><ele>2686.943</ele><time>2026-10-02T14:12:42Z</time></trkpt><trkpt lat="46.528473999999996" lon="12.010439999999987"><ele>2688.388</ele><time>2026-10-02T14:12:54Z</time></trkpt><trkpt lat="46.528431999999995" lon="12.010483999999988"><ele>2689.755</ele><time>2026-10-02T14:13:01Z</time></trkpt><trkpt lat="46.528392999999994" lon="12.010531999999987"><ele>2690.907</ele><time>2026-10-02T14:13:07Z</time></trkpt><trkpt lat="46.52835199999999" lon="12.010564999999987"><ele>2691.817</ele><time>2026-10-02T14:13:13Z</time></trkpt><trkpt lat="46.52831499999999" lon="12.010602999999987"><ele>2692.509</ele><time>2026-10-02T14:13:23Z</time></trkpt><trkpt lat="46.52827599999999" lon="12.010639999999988"><ele>2693.227</ele><time>2026-10-02T14:13:31Z</time></trkpt><trkpt lat="46.528243999999994" lon="12.010694999999988"><ele>2694.393</ele><time>2026-10-02T14:13:41Z</time></trkpt><trkpt lat="46.528254" lon="12.010622999999988"><ele>2695.654</ele><time>2026-10-02T14:14:04Z</time></trkpt><trkpt lat="46.528245999999996" lon="12.010555999999989"><ele>2696.915</ele><time>2026-10-02T14:14:18Z</time></trkpt><trkpt lat="46.528245" lon="12.010486999999989"><ele>2697.759</ele><time>2026-10-02T14:14:27Z</time></trkpt><trkpt lat="46.528199" lon="12.010474999999989"><ele>2698.390</ele><time>2026-10-02T14:14:38Z</time></trkpt><trkpt lat="46.528157" lon="12.010510999999989"><ele>2699.365</ele><time>2026-10-02T14:14:56Z</time></trkpt><trkpt lat="46.528118" lon="12.010545999999989"><ele>2700.571</ele><time>2026-10-02T14:15:05Z</time></trkpt><trkpt lat="46.528076999999996" lon="12.01059299999999"><ele>2701.616</ele><time>2026-10-02T14:15:20Z</time></trkpt><trkpt lat="46.528037999999995" lon="12.01063599999999"><ele>2702.693</ele><time>2026-10-02T14:15:28Z</time></trkpt><trkpt lat="46.528017999999996" lon="12.010567999999989"><ele>2703.765</ele><time>2026-10-02T14:15:47Z</time></trkpt><trkpt lat="46.528029" lon="12.010498999999989"><ele>2704.821</ele><time>2026-10-02T14:16:08Z</time></trkpt><trkpt lat="46.528025" lon="12.01043199999999"><ele>2706.109</ele><time>2026-10-02T14:16:18Z</time></trkpt><trkpt lat="46.527979" lon="12.01041499999999"><ele>2707.321</ele><time>2026-10-02T14:16:32Z</time></trkpt><trkpt lat="46.527931" lon="12.010434999999989"><ele>2708.337</ele><time>2026-10-02T14:16:40Z</time></trkpt><trkpt lat="46.527886" lon="12.01043399999999"><ele>2709.728</ele><time>2026-10-02T14:16:50Z</time></trkpt><trkpt lat="46.52785" lon="12.01048399999999"><ele>2711.239</ele><time>2026-10-02T14:17:02Z</time></trkpt><trkpt lat="46.527819" lon="12.010536999999989"><ele>2712.833</ele><time>2026-10-02T14:17:14Z</time></trkpt><trkpt lat="46.527795" lon="12.010602999999989"><ele>2714.084</ele><time>2026-10-02T14:17:31Z</time></trkpt><trkpt lat="46.527758" lon="12.010562999999989"><ele>2714.739</ele><time>2026-10-02T14:17:46Z</time></trkpt><trkpt lat="46.527771" lon="12.01049799999999"><ele>2715.515</ele><time>2026-10-02T14:18:54Z</time></trkpt><trkpt lat="46.52778" lon="12.01043399999999"><ele>2716.450</ele><time>2026-10-02T14:20:32Z</time></trkpt><trkpt lat="46.527801" lon="12.01037599999999"><ele>2717.041</ele><time>2026-10-02T14:20:55Z</time></trkpt><trkpt lat="46.527828" lon="12.01031499999999"><ele>2717.681</ele><time>2026-10-02T14:21:13Z</time></trkpt><trkpt lat="46.527837" lon="12.01023799999999"><ele>2718.209</ele><time>2026-10-02T14:21:19Z</time></trkpt><trkpt lat="46.52786" lon="12.01017699999999"><ele>2718.409</ele><time>2026-10-02T14:21:24Z</time></trkpt><trkpt lat="46.527873" lon="12.01009699999999"><ele>2718.756</ele><time>2026-10-02T14:21:29Z</time></trkpt><trkpt lat="46.527895" lon="12.010023999999989"><ele>2719.272</ele><time>2026-10-02T14:21:34Z</time></trkpt><trkpt lat="46.527905000000004" lon="12.009954999999989"><ele>2719.733</ele><time>2026-10-02T14:21:42Z</time></trkpt><trkpt lat="46.527862000000006" lon="12.010002999999989"><ele>2720.384</ele><time>2026-10-02T14:22:03Z</time></trkpt><trkpt lat="46.52783000000001" lon="12.010054999999989"><ele>2720.988</ele><time>2026-10-02T14:22:14Z</time></trkpt><trkpt lat="46.52779300000001" lon="12.01009899999999"><ele>2721.549</ele><time>2026-10-02T14:22:27Z</time></trkpt><trkpt lat="46.52777300000001" lon="12.01003999999999"><ele>2721.974</ele><time>2026-10-02T14:22:36Z</time></trkpt><trkpt lat="46.52778500000001" lon="12.00997499999999"><ele>2722.170</ele><time>2026-10-02T14:22:41Z</time></trkpt><trkpt lat="46.52778800000001" lon="12.00990299999999"><ele>2722.885</ele><time>2026-10-02T14:22:47Z</time></trkpt><trkpt lat="46.52779400000001" lon="12.00983399999999"><ele>2723.614</ele><time>2026-10-02T14:22:52Z</time></trkpt><trkpt lat="46.52779100000001" lon="12.00975899999999"><ele>2724.454</ele><time>2026-10-02T14:23:03Z</time></trkpt><trkpt lat="46.52775200000001" lon="12.009802999999991"><ele>2725.209</ele><time>2026-10-02T14:23:10Z</time></trkpt><trkpt lat="46.527733000000005" lon="12.00986799999999"><ele>2726.509</ele><time>2026-10-02T14:23:16Z</time></trkpt><trkpt lat="46.527711000000004" lon="12.00992599999999"><ele>2727.333</ele><time>2026-10-02T14:23:21Z</time></trkpt><trkpt lat="46.527684" lon="12.00998799999999"><ele>2727.349</ele><time>2026-10-02T14:23:29Z</time></trkpt><trkpt lat="46.527655" lon="12.01004399999999"><ele>2727.480</ele><time>2026-10-02T14:23:34Z</time></trkpt><trkpt lat="46.52761" lon="12.010094999999989"><ele>2727.481</ele><time>2026-10-02T14:23:40Z</time></trkpt><trkpt lat="46.527645" lon="12.010049999999989"><ele>2727.425</ele><time>2026-10-02T14:25:22Z</time></trkpt><trkpt lat="46.52768" lon="12.009976999999989"><ele>2727.366</ele><time>2026-10-02T14:25:29Z</time></trkpt><trkpt lat="46.527711999999994" lon="12.009926999999989"><ele>2727.321</ele><time>2026-10-02T14:25:34Z</time></trkpt><trkpt lat="46.52773499999999" lon="12.009860999999988"><ele>2727.487</ele><time>2026-10-02T14:25:39Z</time></trkpt><trkpt lat="46.52776299999999" lon="12.009799999999988"><ele>2727.482</ele><time>2026-10-02T14:25:44Z</time></trkpt><trkpt lat="46.52777699999999" lon="12.009724999999987"><ele>2727.529</ele><time>2026-10-02T14:25:49Z</time></trkpt><trkpt lat="46.52772199999999" lon="12.009740999999988"><ele>2727.500</ele><time>2026-10-02T14:26:00Z</time></trkpt><trkpt lat="46.52767799999999" lon="12.009757999999987"><ele>2727.620</ele><time>2026-10-02T14:26:06Z</time></trkpt><trkpt lat="46.527639999999984" lon="12.009799999999988"><ele>2728.209</ele><time>2026-10-02T14:26:20Z</time></trkpt><trkpt lat="46.52759599999998" lon="12.009825999999988"><ele>2729.314</ele><time>2026-10-02T14:26:26Z</time></trkpt><trkpt lat="46.52764099999998" lon="12.009792999999988"><ele>2731.090</ele><time>2026-10-02T14:27:16Z</time></trkpt><trkpt lat="46.52768299999998" lon="12.009766999999988"><ele>2731.751</ele><time>2026-10-02T14:27:37Z</time></trkpt><trkpt lat="46.52772199999998" lon="12.009724999999987"><ele>2731.792</ele><time>2026-10-02T14:27:44Z</time></trkpt><trkpt lat="46.52775999999999" lon="12.009684999999987"><ele>2731.736</ele><time>2026-10-02T14:27:51Z</time></trkpt><trkpt lat="46.52775999999999" lon="12.009608999999987"><ele>2731.027</ele><time>2026-10-02T14:27:56Z</time></trkpt><trkpt lat="46.52773699999999" lon="12.009542999999987"><ele>2730.112</ele><time>2026-10-02T14:28:01Z</time></trkpt><trkpt lat="46.52772199999999" lon="12.009476999999986"><ele>2729.388</ele><time>2026-10-02T14:28:06Z</time></trkpt><trkpt lat="46.52771899999999" lon="12.009408999999986"><ele>2729.343</ele><time>2026-10-02T14:28:11Z</time></trkpt><trkpt lat="46.52771999999999" lon="12.009339999999986"><ele>2729.371</ele><time>2026-10-02T14:28:16Z</time></trkpt><trkpt lat="46.52772499999999" lon="12.009273999999985"><ele>2729.541</ele><time>2026-10-02T14:28:22Z</time></trkpt><trkpt lat="46.527731999999986" lon="12.009195999999985"><ele>2730.415</ele><time>2026-10-02T14:28:27Z</time></trkpt><trkpt lat="46.527726999999985" lon="12.009128999999986"><ele>2731.409</ele><time>2026-10-02T14:28:32Z</time></trkpt><trkpt lat="46.52774199999998" lon="12.009059999999986"><ele>2732.159</ele><time>2026-10-02T14:28:36Z</time></trkpt><trkpt lat="46.527754999999985" lon="12.008987999999986"><ele>2732.435</ele><time>2026-10-02T14:28:41Z</time></trkpt><trkpt lat="46.527768999999985" lon="12.008913999999987"><ele>2732.986</ele><time>2026-10-02T14:28:46Z</time></trkpt><trkpt lat="46.52779599999999" lon="12.008845999999986"><ele>2733.787</ele><time>2026-10-02T14:28:51Z</time></trkpt><trkpt lat="46.52781899999999" lon="12.008785999999986"><ele>2734.231</ele><time>2026-10-02T14:28:56Z</time></trkpt><trkpt lat="46.52783799999999" lon="12.008717999999986"><ele>2734.672</ele><time>2026-10-02T14:29:14Z</time></trkpt><trkpt lat="46.527844999999985" lon="12.008645999999986"><ele>2735.357</ele><time>2026-10-02T14:29:21Z</time></trkpt><trkpt lat="46.52779899999999" lon="12.008639999999986"><ele>2735.933</ele><time>2026-10-02T14:29:30Z</time></trkpt><trkpt lat="46.527760999999984" lon="12.008689999999985"><ele>2736.428</ele><time>2026-10-02T14:29:35Z</time></trkpt><trkpt lat="46.52772299999998" lon="12.008741999999986"><ele>2736.712</ele><time>2026-10-02T14:29:40Z</time></trkpt><trkpt lat="46.52769499999998" lon="12.008795999999986"><ele>2737.032</ele><time>2026-10-02T14:29:45Z</time></trkpt><trkpt lat="46.52765599999998" lon="12.008846999999985"><ele>2737.505</ele><time>2026-10-02T14:29:56Z</time></trkpt><trkpt lat="46.52764999999998" lon="12.008917999999985"><ele>2738.009</ele><time>2026-10-02T14:30:01Z</time></trkpt><trkpt lat="46.52764399999998" lon="12.008985999999986"><ele>2738.913</ele><time>2026-10-02T14:30:06Z</time></trkpt><trkpt lat="46.52762899999998" lon="12.009053999999987"><ele>2739.649</ele><time>2026-10-02T14:30:12Z</time></trkpt><trkpt lat="46.52758699999998" lon="12.009089999999986"><ele>2739.860</ele><time>2026-10-02T14:30:22Z</time></trkpt></trkseg></trk></gpx>